SL-16 R/B               
1 22566U 93016B   26015.27713188 -.00000162  00000+0 -58940-4 0  9991
2 22566  71.0088 327.3647 0008703  33.4097 326.7574 14.15293521694616
COSMOS 2242             
1 22626U 93024A   26014.94120690  .00001401  00000+0  12135-3 0  9990
2 22626  82.5209 318.1093 0017741 122.1535 238.1411 14.96271798772358
SL-16 R/B               
1 22803U 93059B   26015.47025157  .00000227  00000+0  13607-3 0  9996
2 22803  70.9910 123.3590 0019349 288.8326  71.0699 14.17221139671994
ARIANE 40 R/B           
1 22830U 93061H   26015.13803255  .00000125  00000+0  61785-4 0  9993
2 22830  98.5025  85.0527 0011804  84.3394 275.9136 14.32825561686435
COSMOS 2278             
1 23087U 94023A   26015.13024131  .00000149  00000+0  10264-3 0  9996
2 23087  71.0549 287.1529 0006689 117.2630 242.9175 14.14364243637234
SL-16 R/B               
1 23088U 94023B   26014.84755936  .00000213  00000+0  13438-3 0  9996
2 23088  70.9991 183.9585 0003331 339.8073  20.2917 14.15005511638472
SL-16 R/B               
1 23343U 94074B   26015.08202568  .00000291  00000+0  45646-4 0  9994
2 23343  97.7172  48.0563 0007554  45.2974 337.6715 14.79333011679329
SL-16 R/B               
1 23405U 94077B   26015.48617197  .00000249  00000+0  15191-3 0  9992
2 23405  70.9836 104.4217 0004794 257.2069 102.8518 14.15555377608702
ARIANE 40+ R/B          
1 23561U 95021B   26015.15919608  .00000176  00000+0  70045-4 0  9990
2 23561  98.4603  87.3379 0005746 307.6037  81.3493 14.39724284611543
SL-16 R/B               
1 23705U 95058B   26015.20784553 -.00000059  00000+0 -58509-5 0  9999
2 23705  71.0227 292.5392 0013632 210.7875 149.2450 14.15490120560288
SL-16 R/B               
1 24298U 96051B   26015.12910501 -.00000003  00000+0  25221-4 0  9998
2 24298  70.7594 288.6095 0018972 220.2121 139.7596 14.12400829514083
ORBVIEW 2 (SEASTAR)     
1 24883U 97037A   26015.44348014  .00000195  00000+0  84118-4 0  9993
2 24883  98.8481 178.3718 0001856 192.3068 167.8071 14.35445604500831
